satname,norad_id,inclination_deg,eccentricity,mean_motion_rev_per_day,perigee_km,apogee_km,l1,l2
STARLINK-1276,45368,53.0542,0.0001341,15.06402838,546.2741718154684,548.1315479658906,1 45368U 20019J   25284.27144172  .00001153  00000+0  96273-4 0  9997,2 45368  53.0542 117.3843 0001341  88.7493 271.3649 15.06402838307214
STARLINK-1277,45369,53.0538,0.0001455,15.06400897,546.2011709486587,548.2164465790083,1 45369U 20019K   25284.26414780  .00000856  00000+0  76374-4 0  9991,2 45369  53.0538 118.0441 0001455  90.8992 269.2164 15.06400897307206
STARLINK-1281,45370,53.0519,0.0001319,15.06401349,546.293970521202,548.1208763801069,1 45370U 20019L   25284.26037876  .00000777  00000+0  71025-4 0  9990,2 45370  53.0519 117.4336 0001319  94.0027 266.1113 15.06401349307211
STARLINK-1300,45374,53.0539,0.0001147,15.06400088,546.4169507823044,548.0056256796242,1 45374U 20019Q   25283.95075661 -.00000607  00000+0 -21885-4 0  9996,2 45374  53.0539 118.8207 0001147  85.1130 274.9990 15.06400088307167
STARLINK-1302,45375,53.0522,0.0001419,15.06400988,546.2258233315433,548.1912363929177,1 45375U 20019R   25284.23089644  .00000913  00000+0  80180-4 0  9996,2 45375  53.0522 117.5659 0001419  92.9895 267.1257 15.06400988307207
STARLINK-1304,45376,53.0535,0.00018,15.0632871,546.1834580669674,548.676662208617,1 45376U 20019S   25283.98395576  .00014615  00000+0  99994-3 0  9998,2 45376  53.0535 118.6743 0001800 106.3206 253.7981 15.06328710307160
STARLINK-1305,45377,53.0541,0.0001661,15.06398738,546.0651247512933,548.365726827139,1 45377U 20019T   25284.27512058 -.00001724  00000+0 -96881-4 0  9990,2 45377  53.0541 117.3634 0001661  89.3161 270.8018 15.06398738307212
STARLINK-1319,45379,53.0539,0.0001525,15.06403331,546.1452348236307,548.2574630200525,1 45379U 20019V   25284.26775394  .00000354  00000+0  42632-4 0  9996,2 45379  53.0539 117.4018 0001525  89.3475 270.7688 15.06403331307213
STARLINK-1266,45383,53.055,0.0001241,15.06397987,546.3582909785409,548.0771640219064,1 45383U 20019Z   25284.20324574  .00000078  00000+0  24114-4 0  9993,2 45383  53.0550  97.6899 0001241  91.5061 268.6070 15.06397987307476
STARLINK-1267,45384,53.0542,0.0001358,15.06395541,546.284759974732,548.1656883548158,1 45384U 20019AA  25284.18858629  .00000191  00000+0  31717-4 0  9997,2 45384  53.0542  98.4119 0001358  93.2706 266.8438 15.06395541307467
STARLINK-1272,45386,53.0535,0.0001539,15.06394145,546.1636888233552,548.2953166328944,1 45386U 20019AC  25284.19587590 -.00001903  00000+0 -10893-3 0  9991,2 45386  53.0535  97.7227 0001539  87.1001 273.0164 15.06394145307470
STARLINK-1274,45387,53.0371,0.0007416,15.26824238,480.22311821849325,490.40298733677264,1 45387U 20019AD  25284.18171654  .00025982  00000+0  98165-3 0  9990,2 45387  53.0371  86.1518 0007416 151.2039 208.9369 15.26824238307633
STARLINK-1280,45388,53.0545,0.0001449,15.06402109,546.2016120951266,548.2085762340157,1 45388U 20019AE  25283.98762353  .00000861  00000+0  76655-4 0  9990,2 45388  53.0545 118.6566 0001449  90.0517 270.0638 15.06402109307155
STARLINK-1283,45389,53.0539,0.0001676,15.22226351,497.974182632066,500.27944146186474,1 45389U 20019AF  25284.33335648  .02099696  00000+0  80867-1 0  9997,2 45389  53.0539  96.6724 0001676  92.1090 318.0338 15.22226351  5753
STARLINK-1284,45390,53.0537,0.0001403,15.06406639,546.2195868862746,548.1628339821218,1 45390U 20019AG  25283.94156010 -.00000457  00000+0 -11772-4 0  9998,2 45390  53.0537  98.8653 0001403 107.8404 252.2738 15.06406639307433
STARLINK-1292,45394,53.0482,0.0005666,15.82113372,320.66744043873405,328.2628291778983,1 45394U 20019AL  25284.33335648  .00197877  00000+0  92759-3 0  9996,2 45394  53.0482  59.1098 0005666 287.2168 141.4733 15.82113372  6044
STARLINK-1297,45395,53.0545,0.0001303,15.06403843,546.297408339412,548.1021511042072,1 45395U 20019AM  25284.17744935  .00002353  00000+0  17677-3 0  9992,2 45395  53.0545  97.8048 0001303  91.1514 268.9624 15.06403843306655
STARLINK-1307,45397,53.0535,0.0001372,15.06396701,546.2715097072114,548.1718281259609,1 45397U 20019AP  25283.97103646 -.00000753  00000+0 -31673-4 0  9996,2 45397  53.0535  98.7298 0001372  91.9029 268.2117 15.06396701307260
STARLINK-1312,45398,53.0465,0.0002737,15.82538857,321.42952301709647,325.09786975829957,1 45398U 20019AQ  25284.33335648  .00361073  00000+0  16267-2 0  9990,2 45398  53.0465  58.6755 0002737 217.0678   0.9792 15.82538857  5981
STARLINK-1255,45399,53.0531,0.0001578,15.06784526,544.940657692955,547.1259258370364,1 45399U 20019AR  25283.93841126  .00053003  00000+0  35139-2 0  9999,2 45399  53.0531  88.8763 0001578 110.7541 249.3618 15.06784526307387
STARLINK-1259,45403,53.0453,0.0001321,15.97290209,281.0607869018522,282.8203793993216,1 45403U 20019AV  25284.33335648  .00477804  10610-3  10667-2 0  9997,2 45403  53.0453  38.7173 0001321  17.2407 109.1360 15.97290209  5970
STARLINK-1260,45404,53.0534,0.0001985,15.064011,545.8335055792177,548.5828676182973,1 45404U 20019AW  25284.17100202  .00001102  00000+0  92887-4 0  9994,2 45404  53.0534  87.8325 0001985  88.6651 271.4566 15.06401100307323
STARLINK-1263,45405,53.0525,0.0001406,15.06405823,546.2200098414169,548.1674128374452,1 45405U 20019AX  25284.15625804  .00000377  00000+0  44207-4 0  9999,2 45405  53.0525  87.9001 0001406  92.0976 268.0174 15.06405823307326
STARLINK-1265,45406,53.0538,0.0001487,15.06395791,546.1946566983106,548.2542591959036,1 45406U 20019AY  25284.16362972  .00000157  00000+0  29472-4 0  9998,2 45406  53.0538  87.8674 0001487  91.5739 268.5420 15.06395791307327
STARLINK-1278,45408,53.0529,0.000123,15.06410813,546.3266040524732,548.0302316452644,1 45408U 20019BA  25284.25669112  .00007644  00000+0  53132-3 0  9993,2 45408  53.0529 117.4488 0001230  94.0158 266.0972 15.06410813306924
STARLINK-1296,45412,53.0563,0.0001119,15.06397529,546.4441838566581,547.9940785588224,1 45412U 20019BE  25283.83557815  .00000020  00000+0  20210-4 0  9990,2 45412  53.0563  89.3385 0001119  81.9763 278.1353 15.06397529307277
STARLINK-1298,45413,53.0504,0.0008168,15.47585075,418.2370997117405,429.3487324226271,1 45413U 20019BF  25284.33335648  .00153629  00000+0  28817-2 0  9998,2 45413  53.0504  69.4859 0008168 192.9123 189.8909 15.47585075  5968
STARLINK-1309,45414,53.0537,0.0001275,15.0639512,546.3435306277097,548.1094983239009,1 45414U 20019BG  25284.18205805 -.00000006  00000+0  18505-4 0  9999,2 45414  53.0537  87.7855 0001275  90.4004 269.7131 15.06395120307310
STARLINK-1316,45415,53.0545,0.0001286,15.06398873,546.3244117643644,548.1056123018607,1 45415U 20019BH  25283.94247066  .00000526  00000+0  54211-4 0  9998,2 45415  53.0545  88.8577 0001286  90.8171 269.2965 15.06398873307312
STARLINK-1318,45416,53.0538,0.0001733,15.57878586,392.6242460540734,394.97139866350335,1 45416U 20019BJ  25284.11126387  .00043714  00000+0  57891-3 0  9993,2 45416  53.0538  63.3975 0001733 330.6837  29.4077 15.57878586307675
STARLINK-1286,45417,53.0529,0.0001419,15.06400409,546.2275976299725,548.193011194965,1 45417U 20019BK  25284.24562932  .00003151  00000+0  23033-3 0  9990,2 45417  53.0529 117.4984 0001419  89.0388 271.0764 15.06400409307198
STARLINK-1308,45419,53.0538,0.0001517,15.06398727,546.1648835345732,548.2660354707859,1 45419U 20019BM  25284.24195551  .00000214  00000+0  33294-4 0  9999,2 45419  53.0538 117.5155 0001517  90.0242 270.0921 15.06398727306946
STARLINK-1329,45531,53.0541,0.0001228,15.06398833,546.3647013853761,548.0655678696394,1 45531U 20025A   25284.07792582 -.00000559  00000+0 -18615-4 0  9993,2 45531  53.0541  58.2504 0001228  92.7930 267.3200 15.06398833302545
STARLINK-1338,45532,53.0523,0.0001334,15.06396622,546.2980681623712,548.1457539198354,1 45532U 20025B   25284.08898670 -.00002237  00000+0 -13134-3 0  9995,2 45532  53.0523  58.1993 0001334  89.7776 270.3366 15.06396622302540
STARLINK-1350,45535,53.0761,8.72e-05,15.31599493,470.44236954552434,471.6368659476602,1 45535U 20025E   25283.67335295  .00012883  00000+0  42751-3 0  9994,2 45535  53.0761  15.3350 0000872 103.3673 256.7425 15.31599493303133
STARLINK-1362,45538,53.054,0.0001176,15.06409647,546.367573917094,547.9964089438799,1 45538U 20025H   25283.78945242  .00004532  00000+0  32289-3 0  9995,2 45538  53.0540  59.2632 0001176  99.1391 260.9731 15.06409647302508
STARLINK-1368,45540,53.0546,0.0001297,15.06394174,546.3311938228517,548.1276338706039,1 45540U 20025K   25283.79411593  .00000544  00000+0  55384-4 0  9997,2 45540  53.0546  59.5232 0001297  90.9677 269.1461 15.06394174302493
STARLINK-1371,45542,53.0546,0.00013,15.06397667,546.3184120144197,548.1190044985651,1 45542U 20025M   25284.09635888 -.00000747  00000+0 -31257-4 0  9998,2 45542  53.0546  58.1670 0001300  90.7117 269.4021 15.06397667302549
STARLINK-1372,45543,53.0548,0.0001371,15.06393992,546.280503842353,548.1794394659792,1 45543U 20025N   25284.06686939 -.00000787  00000+0 -33978-4 0  9995,2 45543  53.0548  58.2989 0001371  90.3919 269.7227 15.06393992301637
STARLINK-1373,45544,53.0546,0.0001432,15.06378923,546.2844374968008,548.2678758248685,1 45544U 20025P   25284.08530867  .00001281  00000+0  10494-3 0  9991,2 45544  53.0546  58.2161 0001432  89.1322 270.9831 15.06378923302543
STARLINK-1294,45551,53.0513,0.0006622,15.56292103,393.9118220098808,402.8866666118456,1 45551U 20025W   25283.58033921  .00058335  00000+0  81508-3 0  9998,2 45551  53.0513   1.2712 0006622 335.4274  24.6420 15.56292103303307
STARLINK-1323,45553,53.0304,0.0005221,16.08046866,248.74497179204263,255.66837665666753,1 45553U 20025Y   25284.55885428  .00772211  32559-3  90872-3 0  9993,2 45553  53.0304 332.9363 0005221  42.5686 317.5751 16.08046866302480
STARLINK-1325,45554,53.0598,0.0003356,15.51384088,410.40505004093757,414.96304912942014,1 45554U 20025Z   25284.33335648  .00207658  00000+0  33850-2 0  9996,2 45554  53.0598 350.2935 0003356  42.8971 162.4282 15.51384088  5924
